[
  {
    "OBJECT_NAME": "OSCAR 7 (AO-7)",
    "OBJECT_ID": "1974-089B",
    "EPOCH": "2025-05-31T13:27:49.275072",
    "MEAN_MOTION": 12.53689386,
    "ECCENTRICITY": 0.0012518,
    "INCLINATION": 101.9929,
    "RA_OF_ASC_NODE": 155.7292,
    "ARG_OF_PERICENTER": 138.033,
    "MEAN_ANOMALY": 338.2536,
    "EPHEMERIS_TYPE": 0,
    "CLASSIFICATION_TYPE": "U",
    "NORAD_CAT_ID": 7530,
    "ELEMENT_SET_NO": 999,
    "REV_AT_EPOCH": 31269,
    "BSTAR": 2.024e-05,
    "MEAN_MOTION_DOT": -4.3e-07,
    "MEAN_MOTION_DDOT": 0
  },
  {
    "OBJECT_NAME": "PHASE 3B (AO-10)",
    "OBJECT_ID": "1983-058B",
    "EPOCH": "2025-05-29T04:54:51.031584",
    "MEAN_MOTION": 2.0587061,
    "ECCENTRICITY": 0.6059899,
    "INCLINATION": 26.7455,
    "RA_OF_ASC_NODE": 284.2919,
    "ARG_OF_PERICENTER": 9.1403,
    "MEAN_ANOMALY": 358.0449,
    "EPHEMERIS_TYPE": 0,
    "CLASSIFICATION_TYPE": "U",
    "NORAD_CAT_ID": 14129,
    "ELEMENT_SET_NO": 999,
    "REV_AT_EPOCH": 28758,
    "BSTAR": 0,
    "MEAN_MOTION_DOT": -1.23e-06,
    "MEAN_MOTION_DDOT": 0
  },
  {
    "OBJECT_NAME": "UOSAT 2 (UO-11)",
    "OBJECT_ID": "1984-021B",
    "EPOCH": "2025-05-31T11:08:19.472928",
    "MEAN_MOTION": 14.89360219,
    "ECCENTRICITY": 0.0008231,
    "INCLINATION": 97.7537,
    "RA_OF_ASC_NODE": 118.0135,
    "ARG_OF_PERICENTER": 18.1253,
    "MEAN_ANOMALY": 342.0257,
    "EPHEMERIS_TYPE": 0,
    "CLASSIFICATION_TYPE": "U",
    "NORAD_CAT_ID": 14781,
    "ELEMENT_SET_NO": 999,
    "REV_AT_EPOCH": 20028,
    "BSTAR": 0.0001627,
    "MEAN_MOTION_DOT": 1.49e-05,
    "MEAN_MOTION_DDOT": 0
  },
  {
    "OBJECT_NAME": "LUSAT (LO-19)",
    "OBJECT_ID": "1990-005G",
    "EPOCH": "2025-05-31T14:16:28.894368",
    "MEAN_MOTION": 14.3395105,
    "ECCENTRICITY": 0.0010604,
    "INCLINATION": 98.8979,
    "RA_OF_ASC_NODE": 157.5436,
    "ARG_OF_PERICENTER": 242.1955,
    "MEAN_ANOMALY": 117.8154,
    "EPHEMERIS_TYPE": 0,
    "CLASSIFICATION_TYPE": "U",
    "NORAD_CAT_ID": 20442,
    "ELEMENT_SET_NO": 999,
    "REV_AT_EPOCH": 84770,
    "BSTAR": 6.4075e-05,
    "MEAN_MOTION_DOT": 1.32e-06,
    "MEAN_MOTION_DDOT": 0
  },
  {
    "OBJECT_NAME": "EYESAT A (AO-27)",
    "OBJECT_ID": "1993-061C",
    "EPOCH": "2025-05-31T14:47:27.145824",
    "MEAN_MOTION": 14.30796234,
    "ECCENTRICITY": 0.0009268,
    "INCLINATION": 98.737,
    "RA_OF_ASC_NODE": 213.1269,
    "ARG_OF_PERICENTER": 134.2939,
    "MEAN_ANOMALY": 225.9005,
    "EPHEMERIS_TYPE": 0,
    "CLASSIFICATION_TYPE": "U",
    "NORAD_CAT_ID": 22825,
    "ELEMENT_SET_NO": 999,
    "REV_AT_EPOCH": 65243,
    "BSTAR": 6.5189e-05,
    "MEAN_MOTION_DOT": 1.26e-06,
    "MEAN_MOTION_DDOT": 0
  },
  {
    "OBJECT_NAME": "ITAMSAT (IO-26)",
    "OBJECT_ID": "1993-061D",
    "EPOCH": "2025-05-31T10:16:15.559104",
    "MEAN_MOTION": 14.31208909,
    "ECCENTRICITY": 0.0009959,
    "INCLINATION": 98.7317,
    "RA_OF_ASC_NODE": 212.8203,
    "ARG_OF_PERICENTER": 120.8505,
    "MEAN_ANOMALY": 239.3658,
    "EPHEMERIS_TYPE": 0,
    "CLASSIFICATION_TYPE": "U",
    "NORAD_CAT_ID": 22826,
    "ELEMENT_SET_NO": 999,
    "REV_AT_EPOCH": 65270,
    "BSTAR": 7.0898e-05,
    "MEAN_MOTION_DOT": 1.42e-06,
    "MEAN_MOTION_DDOT": 0
  },
  {
    "OBJECT_NAME": "RADIO ROSTO (RS-15)",
    "OBJECT_ID": "1994-085A",
    "EPOCH": "2025-05-31T11:40:25.976928",
    "MEAN_MOTION": 11.275813,
    "ECCENTRICITY": 0.0145526,
    "INCLINATION": 64.8144,
    "RA_OF_ASC_NODE": 200.5119,
    "ARG_OF_PERICENTER": 76.1301,
    "MEAN_ANOMALY": 285.5764,
    "EPHEMERIS_TYPE": 0,
    "CLASSIFICATION_TYPE": "U",
    "NORAD_CAT_ID": 23439,
    "ELEMENT_SET_NO": 999,
    "REV_AT_EPOCH": 25286,
    "BSTAR": -5.3513e-05,
    "MEAN_MOTION_DOT": -4.4e-07,
    "MEAN_MOTION_DDOT": 0
  },
  {
    "OBJECT_NAME": "JAS-2 (FO-29)",
    "OBJECT_ID": "1996-046B",
    "EPOCH": "2025-05-31T14:01:39.010656",
    "MEAN_MOTION": 13.53248371,
    "ECCENTRICITY": 0.0350141,
    "INCLINATION": 98.577,
    "RA_OF_ASC_NODE": 46.6591,
    "ARG_OF_PERICENTER": 6.1055,
    "MEAN_ANOMALY": 354.4189,
    "EPHEMERIS_TYPE": 0,
    "CLASSIFICATION_TYPE": "U",
    "NORAD_CAT_ID": 24278,
    "ELEMENT_SET_NO": 999,
    "REV_AT_EPOCH": 42155,
    "BSTAR": 6.3807e-05,
    "MEAN_MOTION_DOT": 2.7e-07,
    "MEAN_MOTION_DDOT": 0
  },
  {
    "OBJECT_NAME": "TECHSAT 1B (GO-32)",
    "OBJECT_ID": "1998-043D",
    "EPOCH": "2025-05-31T13:25:44.037408",
    "MEAN_MOTION": 14.24312737,
    "ECCENTRICITY": 7.05e-05,
    "INCLINATION": 98.9698,
    "RA_OF_ASC_NODE": 130.4908,
    "ARG_OF_PERICENTER": 178.1151,
    "MEAN_ANOMALY": 182.003,
    "EPHEMERIS_TYPE": 0,
    "CLASSIFICATION_TYPE": "U",
    "NORAD_CAT_ID": 25397,
    "ELEMENT_SET_NO": 999,
    "REV_AT_EPOCH": 39700,
    "BSTAR": 5.2226e-05,
    "MEAN_MOTION_DOT": 7.4e-07,
    "MEAN_MOTION_DDOT": 0
  },
  {
    "OBJECT_NAME": "ISS (ZARYA)",
    "OBJECT_ID": "1998-067A",
    "EPOCH": "2025-05-31T21:18:29.657664",
    "MEAN_MOTION": 15.49897373,
    "ECCENTRICITY": 0.0001867,
    "INCLINATION": 51.6366,
    "RA_OF_ASC_NODE": 27.8423,
    "ARG_OF_PERICENTER": 174.007,
    "MEAN_ANOMALY": 186.0942,
    "EPHEMERIS_TYPE": 0,
    "CLASSIFICATION_TYPE": "U",
    "NORAD_CAT_ID": 25544,
    "ELEMENT_SET_NO": 999,
    "REV_AT_EPOCH": 51263,
    "BSTAR": 0.00019918,
    "MEAN_MOTION_DOT": 0.00010887,
    "MEAN_MOTION_DDOT": 0
  },
  {
    "OBJECT_NAME": "PCSAT (NO-44)",
    "OBJECT_ID": "2001-043C",
    "EPOCH": "2025-05-31T08:31:04.455552",
    "MEAN_MOTION": 14.3172945,
    "ECCENTRICITY": 0.0005999,
    "INCLINATION": 67.0488,
    "RA_OF_ASC_NODE": 151.6916,
    "ARG_OF_PERICENTER": 275.2021,
    "MEAN_ANOMALY": 84.8396,
    "EPHEMERIS_TYPE": 0,
    "CLASSIFICATION_TYPE": "U",
    "NORAD_CAT_ID": 26931,
    "ELEMENT_SET_NO": 999,
    "REV_AT_EPOCH": 23578,
    "BSTAR": 9.0186e-05,
    "MEAN_MOTION_DOT": 1.58e-06,
    "MEAN_MOTION_DDOT": 0
  },
  {
    "OBJECT_NAME": "SAUDISAT 1C (SO-50)",
    "OBJECT_ID": "2002-058C",
    "EPOCH": "2025-05-31T13:48:45.728064",
    "MEAN_MOTION": 14.81599561,
    "ECCENTRICITY": 0.0055331,
    "INCLINATION": 64.5527,
    "RA_OF_ASC_NODE": 228.3291,
    "ARG_OF_PERICENTER": 336.0923,
    "MEAN_ANOMALY": 23.7613,
    "EPHEMERIS_TYPE": 0,
    "CLASSIFICATION_TYPE": "U",
    "NORAD_CAT_ID": 27607,
    "ELEMENT_SET_NO": 999,
    "REV_AT_EPOCH": 20789,
    "BSTAR": 0.00014539,
    "MEAN_MOTION_DOT": 1.024e-05,
    "MEAN_MOTION_DDOT": 0
  },
  {
    "OBJECT_NAME": "CUTE-1 (CO-55)",
    "OBJECT_ID": "2003-031E",
    "EPOCH": "2025-05-31T11:24:07.393248",
    "MEAN_MOTION": 14.23989051,
    "ECCENTRICITY": 0.0008994,
    "INCLINATION": 98.6756,
    "RA_OF_ASC_NODE": 159.8663,
    "ARG_OF_PERICENTER": 207.2617,
    "MEAN_ANOMALY": 152.8091,
    "EPHEMERIS_TYPE": 0,
    "CLASSIFICATION_TYPE": "U",
    "NORAD_CAT_ID": 27844,
    "ELEMENT_SET_NO": 999,
    "REV_AT_EPOCH": 13734,
    "BSTAR": 0.00016235,
    "MEAN_MOTION_DOT": 3.29e-06,
    "MEAN_MOTION_DDOT": 0
  },
  {
    "OBJECT_NAME": "CUBESAT XI-IV (CO-57)",
    "OBJECT_ID": "2003-031J",
    "EPOCH": "2025-05-31T13:26:09.835584",
    "MEAN_MOTION": 14.23324706,
    "ECCENTRICITY": 0.0008591,
    "INCLINATION": 98.6785,
    "RA_OF_ASC_NODE": 159.9626,
    "ARG_OF_PERICENTER": 225.7468,
    "MEAN_ANOMALY": 134.3006,
    "EPHEMERIS_TYPE": 0,
    "CLASSIFICATION_TYPE": "U",
    "NORAD_CAT_ID": 27848,
    "ELEMENT_SET_NO": 999,
    "REV_AT_EPOCH": 13708,
    "BSTAR": 0.00013769,
    "MEAN_MOTION_DOT": 2.68e-06,
    "MEAN_MOTION_DDOT": 0
  }
]