OSCAR 7 (AO-7)          
1 07530U 74089B   25151.56098698 -.00000043  00000+0  20240-4 0  9997
2 07530 101.9929 155.7292 0012518 138.0330 338.2536 12.53689386312696
PHASE 3B (AO-10)        
1 14129U 83058B   25149.20475731 -.00000123  00000+0  00000+0 0  9996
2 14129  26.7455 284.2919 6059899   9.1403 358.0449  2.05870610287588
UOSAT 2 (UO-11)         
1 14781U 84021B   25151.46411427  .00001490  00000+0  16270-3 0  9991
2 14781  97.7537 118.0135 0008231  18.1253 342.0257 14.89360219200282
LUSAT (LO-19)           
1 20442U 90005G   25151.59477887  .00000132  00000+0  64075-4 0  9996
2 20442  98.8979 157.5436 0010604 242.1955 117.8154 14.33951050847708
EYESAT A (AO-27)        
1 22825U 93061C   25151.61628641  .00000126  00000+0  65189-4 0  9997
2 22825  98.7370 213.1269 0009268 134.2939 225.9005 14.30796234652437
ITAMSAT (IO-26)         
1 22826U 93061D   25151.42795786  .00000142  00000+0  70898-4 0  9993
2 22826  98.7317 212.8203 0009959 120.8505 239.3658 14.31208909652701
RADIO ROSTO (RS-15)     
1 23439U 94085A   25151.48641177 -.00000044  00000+0 -53513-4 0  9999
2 23439  64.8144 200.5119 0145526  76.1301 285.5764 11.27581300252867
JAS-2 (FO-29)           
1 24278U 96046B   25151.58447929  .00000027  00000+0  63807-4 0  9996
2 24278  98.5770  46.6591 0350141   6.1055 354.4189 13.53248371421551
TECHSAT 1B (GO-32)      
1 25397U 98043D   25151.55953747  .00000074  00000+0  52226-4 0  9990
2 25397  98.9698 130.4908 0000705 178.1151 182.0030 14.24312737397005
ISS (ZARYA)             
1 25544U 98067A   25151.88784326  .00010887  00000+0  19918-3 0  9994
2 25544  51.6366  27.8423 0001867 174.0070 186.0942 15.49897373512639
PCSAT (NO-44)           
1 26931U 01043C   25151.35491268  .00000158  00000+0  90186-4 0  9992
2 26931  67.0488 151.6916 0005999 275.2021  84.8396 14.31729450235785
SAUDISAT 1C (SO-50)     
1 27607U 02058C   25151.57552926  .00001024  00000+0  14539-3 0  9993
2 27607  64.5527 228.3291 0055331 336.0923  23.7613 14.81599561207890
CUTE-1 (CO-55)          
1 27844U 03031E   25151.47508557  .00000329  00000+0  16235-3 0  9990
2 27844  98.6756 159.8663 0008994 207.2617 152.8091 14.23989051137347
CUBESAT XI-IV (CO-57)   
1 27848U 03031J   25151.55983606  .00000268  00000+0  13769-3 0  9996
2 27848  98.6785 159.9626 0008591 225.7468 134.3006 14.23324706137087
